GLOBALSTAR M067         
1 32263U 07048A   25295.46594662 -.00000076  00000+0  15644-3 0  9996
2 32263  51.9753  23.4992 0000768 222.0925 220.2719 12.40680035825287
GLOBALSTAR M070         
1 32264U 07048B   25295.53243169 -.00000100  00000+0  20986-4 0  9992
2 32264  51.9730 100.5532 0001082  94.6372 307.4606 12.62324874829758
GLOBALSTAR M066         
1 32265U 07048C   25295.52812520 -.00000099  00000+0 -40654-4 0  9997
2 32265  51.9608  20.1587 0004389 261.7355 111.6699 12.30377635830972
GLOBALSTAR M068         
1 32266U 07048D   25295.36214575 -.00000082  00000+0  12073-3 0  9990
2 32266  51.9879 274.5825 0001481  56.2763  91.2905 12.62831152833625
GLOBALSTAR M079         
1 37188U 10054A   25295.83936735 -.00000105  00000+0 -90578-5 0  9995
2 37188  52.0018 111.1916 0000852 112.6581  29.5551 12.62268030692570
GLOBALSTAR M074         
1 37189U 10054B   25295.86542080 -.00000099  00000+0  28173-4 0  9997
2 37189  51.9996 110.4148 0000823  90.9537  49.3773 12.62272797693189
GLOBALSTAR M076         
1 37190U 10054C   25295.81082399 -.00000082  00000+0  12342-3 0  9998
2 37190  52.0009 110.7648 0000640 101.0114  30.1663 12.62266986692894
GLOBALSTAR M077         
1 37191U 10054D   25295.53798713 -.00000115  00000+0 -14829-3 0  9992
2 37191  52.0075  71.7459 0002007  47.9559  29.4268 12.36452532693195
